{
"type": "FeatureCollection",
"name": "BIBLIOTECA",
"crs": { "type": "name", "properties": { "name": "urn:ogc:def:crs:OGC:1.3:CRS84" } },
"features": [
{ "type": "Feature", "properties": { "id": 2 }, "geometry": { "type": "MultiPolygon", "coordinates": [ [ [ [ -48.854834555957609, -26.251745973259133 ], [ -48.854349914398306, -26.25156063786849 ], [ -48.854266270677407, -26.251732735026756 ], [ -48.854753372346138, -26.251913657405421 ], [ -48.854834555957609, -26.251745973259133 ] ] ] ] } }
]
}
