{
"type": "FeatureCollection",
"name": "blocos_univille1",
"crs": { "type": "name", "properties": { "name": "urn:ogc:def:crs:OGC:1.3:CRS84" } },
"xy_coordinate_resolution": 1e-10,
"features": [
{ "type": "Feature", "properties": { "id": null, "Id_Bloco": "F" }, "geometry": { "type": "MultiPolygon", "coordinates": [ [ [ [ -48.8562204187, -26.2502457427 ], [ -48.8558109081, -26.2500911886 ], [ -48.8557668798, -26.2501837513 ], [ -48.8560547207, -26.2502992422 ], [ -48.8559605096, -26.250492859 ], [ -48.8556144377, -26.250360809 ], [ -48.8555618878, -26.2504741767 ], [ -48.8560267888, -26.2506567538 ], [ -48.8562204187, -26.2502457427 ] ] ] ] } },
{ "type": "Feature", "properties": { "id": null, "Id_Bloco": "E2" }, "geometry": { "type": "MultiPolygon", "coordinates": [ [ [ [ -48.8559290609, -26.2506722813 ], [ -48.8559290609, -26.2506722813 ], [ -48.8555491311, -26.2505305962 ], [ -48.8554264047, -26.2507835216 ], [ -48.8558167793, -26.2509287193 ], [ -48.8559290609, -26.2506722813 ] ] ] ] } },
{ "type": "Feature", "properties": { "id": null, "Id_Bloco": "C" }, "geometry": { "type": "MultiPolygon", "coordinates": [ [ [ [ -48.8547275412, -26.2516157972 ], [ -48.8548173352, -26.2514194298 ], [ -48.8548616172, -26.2514370808 ], [ -48.8548493166, -26.2514767956 ], [ -48.855577509, -26.2517636242 ], [ -48.855734956, -26.25186953 ], [ -48.8562343582, -26.2520658967 ], [ -48.8561334937, -26.2523174222 ], [ -48.8558185997, -26.2522026914 ], [ -48.8558530413, -26.2521254686 ], [ -48.8555406074, -26.2519974994 ], [ -48.8554741844, -26.2519688166 ], [ -48.8554053013, -26.2521453259 ], [ -48.8550116838, -26.251995293 ], [ -48.8551199287, -26.2517724497 ], [ -48.8547275412, -26.2516157972 ] ] ] ] } }
]
}
