{
"type": "FeatureCollection",
"name": "CANTINAS",
"crs": { "type": "name", "properties": { "name": "urn:ogc:def:crs:OGC:1.3:CRS84" } },
"features": [
{ "type": "Feature", "properties": { "id": null, "NOME": "ERIVAS", "HORARIO": "18:00 as 21:00" }, "geometry": { "type": "Point", "coordinates": [ -48.856197456586294, -26.252288739488023 ] } },
{ "type": "Feature", "properties": { "id": null, "NOME": "CAFE BIBLIOTECA", "HORARIO": "08:00 as 22:00" }, "geometry": { "type": "Point", "coordinates": [ -48.854451393912591, -26.251656063567857 ] } },
{ "type": "Feature", "properties": { "id": null, "NOME": "LANCHONETE BLOCO E", "HORARIO": "12:00 as 21:30" }, "geometry": { "type": "Point", "coordinates": [ -48.855426135399014, -26.250776889292641 ] } },
{ "type": "Feature", "properties": { "id": null, "NOME": "CANTINA BLOCO F", "HORARIO": "17:00 as 21:00" }, "geometry": { "type": "Point", "coordinates": [ -48.855836896796781, -26.250262316555418 ] } }
]
}
