{
"type": "FeatureCollection",
"name": "RUAS",
"crs": { "type": "name", "properties": { "name": "urn:ogc:def:crs:OGC:1.3:CRS84" } },
"features": [
{ "type": "Feature", "properties": { "id": 1 }, "geometry": { "type": "MultiLineString", "coordinates": [ [ [ -48.85595052310142, -26.251052067212271 ], [ -48.855790615987935, -26.251411707429607 ], [ -48.85535271650798, -26.251237403414226 ], [ -48.855520003949756, -26.25089320737527 ], [ -48.85595052310142, -26.251054273597362 ], [ -48.855168208300114, -26.250749792058087 ], [ -48.855005841077201, -26.251082956599795 ], [ -48.855357636726858, -26.251235197032603 ] ] ] } },
{ "type": "Feature", "properties": { "id": 1 }, "geometry": { "type": "MultiLineString", "coordinates": [ [ [ -48.855168208300114, -26.250749792058087 ], [ -48.854952641210602, -26.250662639586555 ], [ -48.854795194206567, -26.250995804378189 ], [ -48.855005841077201, -26.251082956599795 ], [ -48.854750912236689, -26.251608074931159 ], [ -48.854690639555457, -26.251584907995998 ], [ -48.854641437366695, -26.251685298014994 ], [ -48.854641437366695, -26.251685298014994 ], [ -48.854641437366695, -26.251685298014994 ], [ -48.854641437366695, -26.251684194828439 ], [ -48.854641437366695, -26.251684194828439 ] ] ] } },
{ "type": "Feature", "properties": { "id": 1 }, "geometry": { "type": "MultiLineString", "coordinates": [ [ [ -48.855357636726858, -26.251235197032603 ], [ -48.855238013905428, -26.251484517890262 ], [ -48.854879292429587, -26.251343629696532 ] ] ] } },
{ "type": "Feature", "properties": { "id": 1 }, "geometry": { "type": "MultiLineString", "coordinates": [ [ [ -48.855238013905428, -26.251484517890262 ], [ -48.855656232509908, -26.251649996040175 ], [ -48.855722655464739, -26.251508788033664 ], [ -48.855768167489352, -26.251454731798241 ], [ -48.855790615987935, -26.251411707429607 ] ] ] } },
{ "type": "Feature", "properties": { "id": 1 }, "geometry": { "type": "MultiLineString", "coordinates": [ [ [ -48.856214677352348, -26.252254540877722 ], [ -48.855690674042052, -26.252055968102855 ], [ -48.855652542345751, -26.251871736391529 ], [ -48.855677143440133, -26.251815473954384 ], [ -48.855618100813629, -26.251745973259123 ], [ -48.855607030321146, -26.251738250957082 ], [ -48.855656232509908, -26.251649996040172 ] ] ] } },
{ "type": "Feature", "properties": { "id": 1 }, "geometry": { "type": "MultiLineString", "coordinates": [ [ [ -48.855790615987935, -26.251411707429607 ], [ -48.856482829281099, -26.251681988455303 ], [ -48.856636586120977, -26.251340000113174 ], [ -48.85595052310142, -26.251054273597358 ] ] ] } },
{ "type": "Feature", "properties": { "id": 1 }, "geometry": { "type": "MultiLineString", "coordinates": [ [ [ -48.856482829281099, -26.251681988455303 ], [ -48.856214677352348, -26.252254540877722 ] ] ] } },
{ "type": "Feature", "properties": { "id": 1 }, "geometry": { "type": "MultiLineString", "coordinates": [ [ [ -48.855656232509908, -26.251649996040168 ], [ -48.856367550649736, -26.251928129337728 ] ] ] } },
{ "type": "Feature", "properties": { "id": 1 }, "geometry": { "type": "MultiLineString", "coordinates": [ [ [ -48.855238013905428, -26.251484517890262 ], [ -48.855166670731741, -26.251622416364889 ], [ -48.854810491400301, -26.251485350265163 ] ] ] } },
{ "type": "Feature", "properties": { "id": 1 }, "geometry": { "type": "MultiLineString", "coordinates": [ [ [ -48.855185219430915, -26.251586563793904 ], [ -48.855607030321138, -26.251738250957079 ] ] ] } },
{ "type": "Feature", "properties": { "id": 1 }, "geometry": { "type": "MultiLineString", "coordinates": [ [ [ -48.855458986588218, -26.250617491554326 ], [ -48.855935454931149, -26.250795023061855 ], [ -48.855980966955741, -26.250714489799016 ], [ -48.855952675697196, -26.250665949175261 ] ] ] } },
{ "type": "Feature", "properties": { "id": 1 }, "geometry": { "type": "MultiLineString", "coordinates": [ [ [ -48.855935454931149, -26.250795023061855 ], [ -48.855881332523502, -26.250946160678417 ], [ -48.855850697693818, -26.251015421003789 ] ] ] } },
{ "type": "Feature", "properties": { "id": 1 }, "geometry": { "type": "MultiLineString", "coordinates": [ [ [ -48.856084941741635, -26.250388192441399 ], [ -48.855835820498896, -26.250332783437717 ] ] ] } },
{ "type": "Feature", "properties": { "id": 1 }, "geometry": { "type": "MultiLineString", "coordinates": [ [ [ -48.855458986588218, -26.250617491554326 ], [ -48.85534548201376, -26.250818788103938 ] ] ] } },
{ "type": "Feature", "properties": { "id": 1 }, "geometry": { "type": "MultiLineString", "coordinates": [ [ [ -48.855952675697196, -26.250665949175261 ], [ -48.856084941741635, -26.250388192441399 ], [ -48.856154725444803, -26.250220949350268 ], [ -48.856190076257988, -26.249915773320595 ] ] ] } },
{ "type": "Feature", "properties": { "id": 1 }, "geometry": { "type": "MultiLineString", "coordinates": [ [ [ -48.854795194206567, -26.250995804378189 ], [ -48.854716470704574, -26.251066408714642 ], [ -48.854594695287382, -26.251328968214406 ], [ -48.854486450472116, -26.251539677299746 ], [ -48.854474149924926, -26.251560637868483 ], [ -48.854665976217639, -26.251635230015125 ] ] ] } }
]
}
